[{"OBJECT_NAME":"STARLINK-35079","OBJECT_ID":"2025-210AD","EPOCH":"2026-03-09T21:58:45.750720","MEAN_MOTION":15.3021431,"ECCENTRICITY":8.524e-5,"INCLINATION":53.1613,"RA_OF_ASC_NODE":306.1667,"ARG_OF_PERICENTER":91.5703,"MEAN_ANOMALY":268.5395,"EPHEMERIS_TYPE":0,"CLASSIFICATION_TYPE":"U","NORAD_CAT_ID":65649,"ELEMENT_SET_NO":999,"REV_AT_EPOCH":2776,"BSTAR":0.0011866069,"MEAN_MOTION_DOT":0.00034966,"MEAN_MOTION_DDOT":0},{"OBJECT_NAME":"NOAA 17 DEB","OBJECT_ID":"2002-032AF","EPOCH":"2026-03-09T00:24:06.552000","MEAN_MOTION":15.25501717,"ECCENTRICITY":0.00030847,"INCLINATION":98.6472,"RA_OF_ASC_NODE":92.5947,"ARG_OF_PERICENTER":165.9893,"MEAN_ANOMALY":194.1428,"EPHEMERIS_TYPE":0,"CLASSIFICATION_TYPE":"U","NORAD_CAT_ID":48614,"ELEMENT_SET_NO":999,"REV_AT_EPOCH":26420,"BSTAR":0.01090047,"MEAN_MOTION_DOT":0.00286783,"MEAN_MOTION_DDOT":0}]
